[{"OBJECT_NAME":"AL MUNTHER","OBJECT_ID":"2025-052AG","EPOCH":"2026-03-09T15:29:23.207136","MEAN_MOTION":15.28381521,"ECCENTRICITY":0.0008027,"INCLINATION":97.4001,"RA_OF_ASC_NODE":323.9152,"ARG_OF_PERICENTER":130.7043,"MEAN_ANOMALY":229.4895,"EPHEMERIS_TYPE":0,"CLASSIFICATION_TYPE":"U","NORAD_CAT_ID":63240,"ELEMENT_SET_NO":999,"REV_AT_EPOCH":5479,"BSTAR":0.00065015,"MEAN_MOTION_DOT":0.00017933,"MEAN_MOTION_DDOT":0},{"OBJECT_NAME":"STARLINK-35698","OBJECT_ID":"2025-262AB","EPOCH":"2026-03-09T23:18:43.789824","MEAN_MOTION":15.27609095,"ECCENTRICITY":0.0001202,"INCLINATION":42.9986,"RA_OF_ASC_NODE":294.2145,"ARG_OF_PERICENTER":312.2303,"MEAN_ANOMALY":47.8446,"EPHEMERIS_TYPE":0,"CLASSIFICATION_TYPE":"U","NORAD_CAT_ID":66481,"ELEMENT_SET_NO":999,"REV_AT_EPOCH":1895,"BSTAR":0.0009482626,"MEAN_MOTION_DOT":0.00025947,"MEAN_MOTION_DDOT":0}]
