AL MUNTHER              
1 63240U 25052AG  26068.64540749  .00017933  00000+0  65015-3 0  9992
2 63240  97.4001 323.9152 0008027 130.7043 229.4895 15.28381521 54798
STARLINK-35698          
1 66481U 25262AB  26068.97134015  .00025947  00000+0  94826-3 0  9992
2 66481  42.9986 294.2145 0001202 312.2303  47.8446 15.27609095 18951
